{
  "last_updated": "2025-12-24T06:00:02.467986",
  "satellites": {
    "98592": {
      "name": "DUTHSat-2",
      "norad_id": "98592",
      "tle": "1 64530U 25135C   25357.88115182  .00014192  00000-0  62669-3 0  9999\n2 64530  97.4506 109.7011 0006092  84.5428 275.6503 15.21833105 28229",
      "epoch": "2025-12-23T21:08:51.517248",
      "fetched_at": "2025-12-24T06:00:02.617795",
      "source": "satnogs"
    },
    "98530": {
      "name": "LAMARR",
      "norad_id": "98530",
      "tle": "1 66673U 25276H   25357.89177688  .00020251  00000-0  10207-2 0  9998\n2 66673  97.4358  69.4263 0005915 264.9703  95.0856 15.17174921  3810",
      "epoch": "2025-12-23T21:24:09.522432",
      "fetched_at": "2025-12-24T06:00:02.677381",
      "source": "satnogs"
    },
    "98529": {
      "name": "DIRAC",
      "norad_id": "98529",
      "tle": "1 66681U 25276R   25357.88741599  .00018127  00000-0  90657-3 0  9991\n2 66681  97.4333  69.4238 0005013 270.8325  89.2334 15.17474771  3811",
      "epoch": "2025-12-23T21:17:52.741536",
      "fetched_at": "2025-12-24T06:00:02.732168",
      "source": "satnogs"
    },
    "98518": {
      "name": "MICE-1",
      "norad_id": "98518",
      "tle": "1 98518U 25276Z   25345.50761227  .00000000  00000-0  85911-3 0 00002\n2 98518  97.4491  57.2978 0004401 288.2412 177.0173 15.17054724 01824",
      "epoch": "2025-12-11T12:10:57.700128",
      "fetched_at": "2025-12-24T06:00:02.788187",
      "source": "satnogs"
    }
  },
  "fetch_log": [
    {
      "norad_id": "98592",
      "name": "DUTHSat-2",
      "status": "success",
      "source": "satnogs",
      "timestamp": "2025-12-24T06:00:02.617804"
    },
    {
      "norad_id": "98530",
      "name": "LAMARR",
      "status": "success",
      "source": "satnogs",
      "timestamp": "2025-12-24T06:00:02.677385"
    },
    {
      "norad_id": "98529",
      "name": "DIRAC",
      "status": "success",
      "source": "satnogs",
      "timestamp": "2025-12-24T06:00:02.732172"
    },
    {
      "norad_id": "98518",
      "name": "MICE-1",
      "status": "success",
      "source": "satnogs",
      "timestamp": "2025-12-24T06:00:02.788192"
    }
  ]
}